1 44724U 19074M   22365.29091126  .00007988  00000-0  55429-3 0  9990
2 44724  53.0535  13.8097 0002014  51.9158 308.2012 15.06417594173243
1 44724U 19074M   22365.75533766  .00001637  00000-0  12875-3 0  9995
2 44724  53.0526  11.7248 0001906  50.3246 309.7911 15.06409032173318
1 44724U 19074M   23001.41881040 -.00002931  00000-0 -17799-3 0  9997
2 44724  53.0560   8.7459 0001931  60.1800 299.9381 15.06394808173583
1 44724U 19074M   23001.48516340 -.00003975  00000-0 -24821-3 0  9995
2 44724  53.0536   8.4483 0001874  48.4850 311.6299 15.06386520173425
1 44724U 19074M   23001.48516340 -.00003975  00000-0 -24821-3 0  9995
2 44724  53.0536   8.4483 0001874  48.4850 311.6299 15.06386520173593
1 44724U 19074M   23002.28132754 -.00001443  00000-0 -77981-4 0  9991
2 44724  53.0546   4.8745 0001882  47.6167 312.4981 15.06396550173711
1 44724U 19074M   23002.41401971 -.00001009  00000-0 -48856-4 0  9993
2 44724  53.0542   4.2788 0001925  48.2510 311.8643 15.06398167173562
1 44724U 19074M   23003.40922469  .00002628  00000-0  19528-3 0  9992
2 44724  53.0541 359.8114 0001982  49.6988 310.4174 15.06391903173712
1 44724U 19074M   23003.40922469  .00002628  00000-0  19528-3 0  9992
2 44724  53.0541 359.8114 0001982  49.6988 310.4174 15.06391903173880
1 44724U 19074M   23003.67461903  .00001175  00000-0  97837-4 0  9998
2 44724  53.0546 358.6198 0002004  49.3513 310.7650 15.06387657173929
1 44724U 19074M   23004.27173856  .00001722  00000-0  13449-3 0  9996
2 44724  53.0544 355.9387 0001986  49.6142 310.5020 15.06396094173841
1 44724U 19074M   23004.27173856  .00001722  00000-0  13449-3 0  9996
2 44724  53.0544 355.9387 0001986  49.6142 310.5020 15.06396094174011
1 44724U 19074M   23004.66981956  .00001159  00000-0  96697-4 0  9998
2 44724  53.0544 354.1517 0001989  49.9831 310.1333 15.06398241173904
1 44724U 19074M   23005.06789106  .00002130  00000-0  16179-3 0  9992
2 44724  53.0550 352.3644 0001946  45.1978 314.9169 15.06409159174131
1 44724U 19074M   23005.33327112  .00003269  00000-0  23817-3 0  9998
2 44724  53.0554 351.1739 0001936  52.5321 307.5844 15.06416124174004
1 44724U 19074M   23005.33327112  .00003269  00000-0  23817-3 0  9998
2 44724  53.0554 351.1739 0001936  52.5321 307.5844 15.06416124174172
1 44724U 19074M   23005.66500890  .00002468  00000-0  18449-3 0  9995
2 44724  53.0539 349.6844 0002088  51.8553 308.2624 15.06411529174057
1 44724U 19074M   23006.19579184 -.00001891  00000-0 -10808-3 0  9998
2 44724  53.0535 347.3012 0001455  44.7349 315.3757 15.06391649174300
1 44724U 19074M   23006.32848228 -.00000344  00000-0 -41616-5 0  9996
2 44724  53.0547 346.7098 0002459  55.6695 304.4526 15.06401662174153
1 44724U 19074M   23006.32848228 -.00000344  00000-0 -41616-5 0  9996
2 44724  53.0547 346.7098 0002459  55.6695 304.4526 15.06401662174322
1 44724U 19074M   23007.19098603  .00000801  00000-0  72690-4 0  9997
2 44724  53.0546 342.8351 0002002  49.0604 311.0558 15.06408783174286
1 44724U 19074M   23007.78811559 -.00000843  00000-0 -37695-4 0  9999
2 44724  53.0543 340.1520 0001719  60.4199 299.6961 15.06393721174545
1 44724U 19074M   23007.92081512 -.00000338  00000-0 -37844-5 0  9999
2 44724  53.0539 339.5579 0001731  55.3117 304.8035 15.06385762174393
1 44724U 19074M   23008.31890053  .00001019  00000-0  87327-4 0  9996
2 44724  53.0541 337.7700 0001805  53.8067 306.3089 15.06383701174455
1 44724U 19074M   23008.31890053  .00001019  00000-0  87327-4 0  9996
2 44724  53.0541 337.7700 0001805  53.8067 306.3089 15.06383701174624
1 44724U 19074M   23008.91601134  .00000713  00000-0  66753-4 0  9992
2 44724  53.0547 335.0901 0001777  57.3929 302.7232 15.06405786174547
1 44724U 19074M   23009.18139753  .00003365  00000-0  24472-3 0  9992
2 44724  53.0550 333.8992 0001385  68.7186 291.3951 15.06398806174751
1 44724U 19074M   23009.57948526  .00001915  00000-0  14745-3 0  9992
2 44724  53.0541 332.1118 0001855  53.5839 306.5321 15.06397940174648
1 44724U 19074M   23009.57948526  .00001915  00000-0  14745-3 0  9992
2 44724  53.0541 332.1118 0001855  53.5839 306.5321 15.06397940174817
1 44724U 19074M   23009.91122251  .00004330  00000-0  30946-3 0  9994
2 44724  53.0539 330.6223 0001799  52.1507 307.9645 15.06393903174693
1 44724U 19074M   23010.57468919  .00000734  00000-0  68207-4 0  9998
2 44724  53.0537 327.6448 0001770  50.1366 309.9779 15.06395954174795
1 44724U 19074M   23011.17179818  .00004793  00000-0  34028-3 0  9994
2 44724  53.0539 324.9645 0001789  55.8194 304.2964 15.06418306175058
1 44724U 19074M   23011.56988714 -.00000050  00000-0  15532-4 0  9993
2 44724  53.0543 323.1774 0001963  65.1688 294.9505 15.06399203174940
1 44724U 19074M   23011.63623413 -.00001003  00000-0 -48424-4 0  9999
2 44724  53.0528 322.8801 0001960  69.1192 291.0006 15.06396492175123
1 44724U 19074M   23011.83528350 -.00006122  00000-0 -39265-3 0  9994
2 44724  53.0543 321.9860 0001735  68.7163 291.4011 15.06377230174980
1 44724U 19074M   23012.03432404 -.00003533  00000-0 -21851-3 0  9996
2 44724  53.0541 321.0924 0001744  69.7835 290.3341 15.06383163175186
1 44724U 19074M   23012.83049847  .00009428  00000-0  65138-3 0  9992
2 44724  53.0528 317.5182 0001822  84.8335 275.2861 15.06377557175131
1 44724U 19074M   23013.09588737  .00010986  00000-0  75556-3 0  9993
2 44724  53.0527 316.3267 0001727  87.7038 272.4148 15.06386430175347
1 44724U 19074M   23013.56031945  .00010583  00000-0  72850-3 0  9996
2 44724  53.0537 314.2416 0001742  85.1601 274.9587 15.06389396175243
1 44724U 19074M   23014.09109457  .00006742  00000-0  47113-3 0  9995
2 44724  53.0531 311.8593 0001637  80.8629 279.2545 15.06396875175490
1 44724U 19074M   23014.22378605  .00010542  00000-0  72544-3 0  9992
2 44724  53.0532 311.2624 0001867  82.3919 277.7282 15.06407396175519
1 44724U 19074M   23015.08629042  .00008237  00000-0  57104-3 0  9994
2 44724  53.0529 307.3914 0001732  88.5358 271.5829 15.06413887175644
1 44724U 19074M   23015.21898182  .00008984  00000-0  62093-3 0  9994
2 44724  53.0535 306.7941 0002078  90.8983 269.2244 15.06418667175497
1 44724U 19074M   23016.08148607  .00017366  00000-0  11810-2 0  9994
2 44724  53.0531 302.9232 0001437  96.3897 263.7256 15.06427045175792
1 44724U 19074M   23016.47956486  .00007404  00000-0  51531-3 0  9996
2 44724  53.0538 301.1365 0001640  81.9549 278.1626 15.06407914175689
1 44724U 19074M   23016.47956486  .00007404  00000-0  51531-3 0  9996
2 44724  53.0538 301.1365 0001640  81.9549 278.1626 15.06407914175858
1 44724U 19074M   23016.81131051 -.00015328  00000-0 -10134-2 0  9996
2 44724  53.0535 299.6461 0001576  81.8411 278.2756 15.06361920175736
1 44724U 19074M   23016.81131051 -.00015328  00000-0 -10134-2 0  9996
2 44724  53.0535 299.6461 0001576  81.8411 278.2756 15.06361920175905
1 44724U 19074M   23017.14305261  .00006255  00000-0  43884-3 0  9995
2 44724  53.0533 298.1593 0001771  93.6748 266.4444 15.06365923175959
1 44724U 19074M   23017.47479098  .00011130  00000-0  76533-3 0  9996
2 44724  53.0546 296.6694 0001553  86.9134 273.2033 15.06377794175836
1 44724U 19074M   23018.07191224  .00024051  00000-0  16275-2 0  9997
2 44724  53.0531 293.9875 0001426  81.8383 278.2768 15.06412281175921
1 44724U 19074M   23018.07191224  .00024051  00000-0  16275-2 0  9997
2 44724  53.0531 293.9875 0001426  81.8383 278.2768 15.06412281176090
1 44724U 19074M   23018.86806557  .00019376  00000-0  13150-2 0  9999
2 44724  53.0528 290.4135 0001516  71.3034 288.8119 15.06430646176041
1 44724U 19074M   23019.13344480  .00019115  00000-0  12972-2 0  9994
2 44724  53.0530 289.2213 0001362  79.6236 280.4906 15.06441934176258
1 44724U 19074M   23019.46518082 -.00002070  00000-0 -12009-3 0  9997
2 44724  53.0529 287.7323 0001105  92.8881 267.2235 15.06409222176138
1 44724U 19074M   23019.46518082 -.00002070  00000-0 -12009-3 0  9997
2 44724  53.0529 287.7323 0001105  92.8881 267.2235 15.06409222176307
1 44724U 19074M   23019.73057428 -.00014490  00000-0 -95639-3 0  9998
2 44724  53.0526 286.5416 0000977 100.6546 259.4553 15.06380064176348
1 44724U 19074M   23020.12866004  .00009032  00000-0  62462-3 0  9993
2 44724  53.0517 284.7568 0001468  91.8990 268.2168 15.06392366176401
1 44724U 19074M   23020.46039950  .00020651  00000-0  14018-2 0  9995
2 44724  53.0529 283.2645 0001196 101.0129 259.0994 15.06384201176280
1 44724U 19074M   23020.46039950  .00020651  00000-0  14018-2 0  9995
2 44724  53.0529 283.2645 0001196 101.0129 259.0994 15.06384201176459
1 44724U 19074M   23021.12387080  .00014441  00000-0  98630-3 0  9992
2 44724  53.0532 280.2851 0001393 103.9889 256.1255 15.06401891176556
1 44724U 19074M   23022.71618925  .00004307  00000-0  30780-3 0  9995
2 44724  53.0529 273.1363 0001369 102.8276 257.2866 15.06408498176798
1 44724U 19074M   23023.11427120  .00000491  00000-0  51843-4 0  9999
2 44724  53.0526 271.3503 0001171  84.0836 276.0286 15.06401280176859
1 44724U 19074M   23024.44120702  .00001854  00000-0  14335-3 0  9990
2 44724  53.0531 265.3918 0001251 110.2307 249.8816 15.06397799177051
1 44724U 19074M   23025.43641365 -.00000198  00000-0  55788-5 0  9993
2 44724  53.0524 260.9254 0001142  87.9595 272.1524 15.06396683177039
1 44724U 19074M   23025.83449463  .00000487  00000-0  51581-4 0  9998
2 44724  53.0524 259.1386 0001137  88.9718 271.1401 15.06396410177094
1 44724U 19074M   23025.83449463  .00000487  00000-0  51581-4 0  9998
2 44724  53.0524 259.1386 0001137  88.9718 271.1401 15.06396410177263
1 44724U 19074M   23026.03352947  .00000288  00000-0  38192-4 0  9993
2 44724  53.0523 258.2445 0001165  87.4833 272.6289 15.06405823177125
1 44724U 19074M   23026.03352947  .00000288  00000-0  38192-4 0  9993
2 44724  53.0523 258.2445 0001165  87.4833 272.6289 15.06405823177293
1 44724U 19074M   23026.82969748  .00000650  00000-0  62542-4 0  9992
2 44724  53.0521 254.6700 0001221  91.0892 269.0237 15.06394201177418
1 44724U 19074M   23027.02873380  .00000648  00000-0  62361-4 0  9997
2 44724  53.0530 253.7744 0001232  92.4192 267.6938 15.06400479177277
1 44724U 19074M   23027.02873380  .00000648  00000-0  62361-4 0  9997
2 44724  53.0530 253.7744 0001232  92.4192 267.6938 15.06400479177446
1 44724U 19074M   23027.75855724  .00004527  00000-0  32279-3 0  9993
2 44724  53.0534 250.4961 0001017 112.3079 247.8018 15.06376218177556
1 44724U 19074M   23027.89125389  .00004768  00000-0  33899-3 0  9991
2 44724  53.0526 249.9030 0001169  93.5960 266.5162 15.06374526177406
1 44724U 19074M   23028.02394065 -.00000336  00000-0 -36341-5 0  9992
2 44724  53.0526 249.3074 0001269  90.8778 269.2356 15.06397306177424
1 44724U 19074M   23028.02394065 -.00000336  00000-0 -36341-5 0  9992
2 44724  53.0526 249.3074 0001269  90.8778 269.2356 15.06397306177592
1 44724U 19074M   23028.88645181 -.00001090  00000-0 -54278-4 0  9990
2 44724  53.0522 245.4369 0001127  85.5207 274.5910 15.06399221177552
1 44724U 19074M   23029.68260355  .00001364  00000-0  11045-3 0  9991
2 44724  53.0526 241.8624 0001188  83.4782 276.6342 15.06405997177844
1 44724U 19074M   23029.88164334  .00001417  00000-0  11398-3 0  9993
2 44724  53.0523 240.9687 0001202  86.1052 274.0074 15.06405275177705
1 44724U 19074M   23030.54512366  .00000389  00000-0  45010-4 0  9996
2 44724  53.0538 237.9927 0001183  88.0480 272.0644 15.06390509177803
1 44724U 19074M   23030.67782239 -.00000765  00000-0 -32513-4 0  9992
2 44724  53.0528 237.3940 0001267  79.5859 280.5273 15.06389249177822
1 44724U 19074M   23030.67782239 -.00000765  00000-0 -32513-4 0  9992
2 44724  53.0528 237.3940 0001267  79.5859 280.5273 15.06389249177990
1 44724U 19074M   23031.00955942 -.00000937  00000-0 -44028-4 0  9998
2 44724  53.0527 235.9048 0001275  82.5745 277.5389 15.06387665177870
1 44724U 19074M   23031.80571868 -.00001226  00000-0 -63421-4 0  9997
2 44724  53.0518 232.3311 0001213  91.9371 268.1757 15.06395792177993
1 44724U 19074M   23031.80571868 -.00001226  00000-0 -63421-4 0  9997
2 44724  53.0518 232.3311 0001213  91.9371 268.1757 15.06395792178163
